[{"OBJECT_NAME":"STARLINK-4709","OBJECT_ID":"2022-111F","EPOCH":"2025-11-17T12:05:42.893088","MEAN_MOTION":15.08835475,"ECCENTRICITY":0.0001453,"INCLINATION":53.2193,"RA_OF_ASC_NODE":62.4651,"ARG_OF_PERICENTER":104.4717,"MEAN_ANOMALY":255.6436,"EPHEMERIS_TYPE":0,"CLASSIFICATION_TYPE":"U","NORAD_CAT_ID":53778,"ELEMENT_SET_NO":999,"REV_AT_EPOCH":17669,"BSTAR":6.7283e-5,"MEAN_MOTION_DOT":7.83e-6,"MEAN_MOTION_DDOT":0},{"OBJECT_NAME":"STARLINK-4706","OBJECT_ID":"2022-111G","EPOCH":"2025-11-17T11:21:25.020000","MEAN_MOTION":15.08846017,"ECCENTRICITY":0.0001281,"INCLINATION":53.2184,"RA_OF_ASC_NODE":57.9961,"ARG_OF_PERICENTER":85.459,"MEAN_ANOMALY":274.6548,"EPHEMERIS_TYPE":0,"CLASSIFICATION_TYPE":"U","NORAD_CAT_ID":53779,"ELEMENT_SET_NO":999,"REV_AT_EPOCH":17675,"BSTAR":-8.2353e-5,"MEAN_MOTION_DOT":-1.599e-5,"MEAN_MOTION_DDOT":0},{"OBJECT_NAME":"STARLINK-4678","OBJECT_ID":"2022-111H","EPOCH":"2025-11-17T11:32:00.832416","MEAN_MOTION":15.08847166,"ECCENTRICITY":0.0001554,"INCLINATION":53.2183,"RA_OF_ASC_NODE":58.0322,"ARG_OF_PERICENTER":96.1512,"MEAN_ANOMALY":263.9657,"EPHEMERIS_TYPE":0,"CLASSIFICATION_TYPE":"U","NORAD_CAT_ID":53780,"ELEMENT_SET_NO":999,"REV_AT_EPOCH":17675,"BSTAR":1.6168e-6,"MEAN_MOTION_DOT":-2.62e-6,"MEAN_MOTION_DDOT":0},{"OBJECT_NAME":"STARLINK-4462","OBJECT_ID":"2022-111J","EPOCH":"2025-11-17T11:05:29.012640","MEAN_MOTION":15.08849896,"ECCENTRICITY":0.0001307,"INCLINATION":53.2171,"RA_OF_ASC_NODE":57.9274,"ARG_OF_PERICENTER":94.3014,"MEAN_ANOMALY":265.8128,"EPHEMERIS_TYPE":0,"CLASSIFICATION_TYPE":"U","NORAD_CAT_ID":53781,"ELEMENT_SET_NO":999,"REV_AT_EPOCH":17675,"BSTAR":-7.5917e-5,"MEAN_MOTION_DOT":-1.496e-5,"MEAN_MOTION_DDOT":0},{"OBJECT_NAME":"STARLINK-4679","OBJECT_ID":"2022-111K","EPOCH":"2025-11-17T11:16:00.174144","MEAN_MOTION":15.08986392,"ECCENTRICITY":0.0002256,"INCLINATION":53.2201,"RA_OF_ASC_NODE":57.971,"ARG_OF_PERICENTER":58.449,"MEAN_ANOMALY":301.6722,"EPHEMERIS_TYPE":0,"CLASSIFICATION_TYPE":"U","NORAD_CAT_ID":53782,"ELEMENT_SET_NO":999,"REV_AT_EPOCH":17675,"BSTAR":-0.0024205,"MEAN_MOTION_DOT":-0.0003876,"MEAN_MOTION_DDOT":0},{"OBJECT_NAME":"STARLINK-4536","OBJECT_ID":"2022-111L","EPOCH":"2025-11-17T10:54:52.659360","MEAN_MOTION":15.08841537,"ECCENTRICITY":0.0001435,"INCLINATION":53.219,"RA_OF_ASC_NODE":57.8827,"ARG_OF_PERICENTER":97.5987,"MEAN_ANOMALY":262.5168,"EPHEMERIS_TYPE":0,"CLASSIFICATION_TYPE":"U","NORAD_CAT_ID":53783,"ELEMENT_SET_NO":999,"REV_AT_EPOCH":17675,"BSTAR":-0.00012515,"MEAN_MOTION_DOT":-2.279e-5,"MEAN_MOTION_DDOT":0},{"OBJECT_NAME":"STARLINK-4687","OBJECT_ID":"2022-111M","EPOCH":"2025-11-16T11:20:00.303072","MEAN_MOTION":15.08847813,"ECCENTRICITY":0.00013299,"INCLINATION":53.2175,"RA_OF_ASC_NODE":62.4099,"ARG_OF_PERICENTER":115.4955,"MEAN_ANOMALY":244.6175,"EPHEMERIS_TYPE":0,"CLASSIFICATION_TYPE":"U","NORAD_CAT_ID":53784,"ELEMENT_SET_NO":999,"REV_AT_EPOCH":17660,"BSTAR":0.0002080708,"MEAN_MOTION_DOT":3.026e-5,"MEAN_MOTION_DDOT":0},{"OBJECT_NAME":"STARLINK-4743","OBJECT_ID":"2022-111Q","EPOCH":"2025-11-17T10:44:16.541088","MEAN_MOTION":15.08845536,"ECCENTRICITY":9.19e-5,"INCLINATION":53.2198,"RA_OF_ASC_NODE":57.8361,"ARG_OF_PERICENTER":57.4138,"MEAN_ANOMALY":302.6943,"EPHEMERIS_TYPE":0,"CLASSIFICATION_TYPE":"U","NORAD_CAT_ID":53787,"ELEMENT_SET_NO":999,"REV_AT_EPOCH":17675,"BSTAR":0.00015355,"MEAN_MOTION_DOT":2.157e-5,"MEAN_MOTION_DDOT":0},{"OBJECT_NAME":"STARLINK-4666","OBJECT_ID":"2022-111S","EPOCH":"2025-11-17T12:03:43.857216","MEAN_MOTION":15.08843503,"ECCENTRICITY":0.0001392,"INCLINATION":53.2193,"RA_OF_ASC_NODE":57.4695,"ARG_OF_PERICENTER":106.2071,"MEAN_ANOMALY":253.9074,"EPHEMERIS_TYPE":0,"CLASSIFICATION_TYPE":"U","NORAD_CAT_ID":53789,"ELEMENT_SET_NO":999,"REV_AT_EPOCH":17675,"BSTAR":0.00074275,"MEAN_MOTION_DOT":0.00011554,"MEAN_MOTION_DDOT":0},{"OBJECT_NAME":"STARLINK-4734","OBJECT_ID":"2022-111T","EPOCH":"2025-11-17T10:49:34.114656","MEAN_MOTION":15.08844775,"ECCENTRICITY":0.0001308,"INCLINATION":53.2171,"RA_OF_ASC_NODE":57.8593,"ARG_OF_PERICENTER":100.3533,"MEAN_ANOMALY":259.7607,"EPHEMERIS_TYPE":0,"CLASSIFICATION_TYPE":"U","NORAD_CAT_ID":53790,"ELEMENT_SET_NO":999,"REV_AT_EPOCH":17675,"BSTAR":8.1793e-5,"MEAN_MOTION_DOT":1.014e-5,"MEAN_MOTION_DDOT":0},{"OBJECT_NAME":"STARLINK-4739","OBJECT_ID":"2022-111V","EPOCH":"2025-11-17T11:54:37.166400","MEAN_MOTION":15.08847312,"ECCENTRICITY":0.0001317,"INCLINATION":53.2192,"RA_OF_ASC_NODE":58.1221,"ARG_OF_PERICENTER":96.5631,"MEAN_ANOMALY":263.5511,"EPHEMERIS_TYPE":0,"CLASSIFICATION_TYPE":"U","NORAD_CAT_ID":53792,"ELEMENT_SET_NO":999,"REV_AT_EPOCH":17674,"BSTAR":3.9829e-6,"MEAN_MOTION_DOT":-2.25e-6,"MEAN_MOTION_DDOT":0},{"OBJECT_NAME":"STARLINK-4728","OBJECT_ID":"2022-111W","EPOCH":"2025-11-17T10:38:57.412320","MEAN_MOTION":15.0884991,"ECCENTRICITY":9.41e-5,"INCLINATION":53.2192,"RA_OF_ASC_NODE":57.8095,"ARG_OF_PERICENTER":79.9542,"MEAN_ANOMALY":280.1557,"EPHEMERIS_TYPE":0,"CLASSIFICATION_TYPE":"U","NORAD_CAT_ID":53793,"ELEMENT_SET_NO":999,"REV_AT_EPOCH":17674,"BSTAR":0.00025236,"MEAN_MOTION_DOT":3.732e-5,"MEAN_MOTION_DDOT":0},{"OBJECT_NAME":"STARLINK-4730","OBJECT_ID":"2022-111X","EPOCH":"2025-11-17T10:45:38.602080","MEAN_MOTION":15.08840851,"ECCENTRICITY":0.000104,"INCLINATION":53.219,"RA_OF_ASC_NODE":57.8379,"ARG_OF_PERICENTER":83.519,"MEAN_ANOMALY":276.5921,"EPHEMERIS_TYPE":0,"CLASSIFICATION_TYPE":"U","NORAD_CAT_ID":53794,"ELEMENT_SET_NO":999,"REV_AT_EPOCH":17674,"BSTAR":-2.7601e-6,"MEAN_MOTION_DOT":-3.32e-6,"MEAN_MOTION_DDOT":0},{"OBJECT_NAME":"STARLINK-4742","OBJECT_ID":"2022-111Y","EPOCH":"2025-11-17T11:58:25.063680","MEAN_MOTION":15.0882772,"ECCENTRICITY":0.0001244,"INCLINATION":53.2185,"RA_OF_ASC_NODE":57.4458,"ARG_OF_PERICENTER":92.6052,"MEAN_ANOMALY":267.5082,"EPHEMERIS_TYPE":0,"CLASSIFICATION_TYPE":"U","NORAD_CAT_ID":53795,"ELEMENT_SET_NO":999,"REV_AT_EPOCH":17675,"BSTAR":0.00013795,"MEAN_MOTION_DOT":1.908e-5,"MEAN_MOTION_DDOT":0},{"OBJECT_NAME":"STARLINK-4723","OBJECT_ID":"2022-111AA","EPOCH":"2025-11-17T11:42:30.209760","MEAN_MOTION":15.08847807,"ECCENTRICITY":0.0001166,"INCLINATION":53.2173,"RA_OF_ASC_NODE":57.3762,"ARG_OF_PERICENTER":100.0206,"MEAN_ANOMALY":260.0918,"EPHEMERIS_TYPE":0,"CLASSIFICATION_TYPE":"U","NORAD_CAT_ID":53797,"ELEMENT_SET_NO":999,"REV_AT_EPOCH":17674,"BSTAR":-5.2635e-6,"MEAN_MOTION_DOT":-3.72e-6,"MEAN_MOTION_DDOT":0},{"OBJECT_NAME":"STARLINK-4712","OBJECT_ID":"2022-111AB","EPOCH":"2025-11-17T11:47:48.717312","MEAN_MOTION":15.08845996,"ECCENTRICITY":0.0001212,"INCLINATION":53.2175,"RA_OF_ASC_NODE":57.3986,"ARG_OF_PERICENTER":83.7831,"MEAN_ANOMALY":276.3299,"EPHEMERIS_TYPE":0,"CLASSIFICATION_TYPE":"U","NORAD_CAT_ID":53798,"ELEMENT_SET_NO":999,"REV_AT_EPOCH":17674,"BSTAR":4.1118e-5,"MEAN_MOTION_DOT":3.67e-6,"MEAN_MOTION_DDOT":0},{"OBJECT_NAME":"STARLINK-4710","OBJECT_ID":"2022-111AC","EPOCH":"2025-11-17T11:13:31.586880","MEAN_MOTION":15.08829146,"ECCENTRICITY":0.0001436,"INCLINATION":53.2182,"RA_OF_ASC_NODE":47.9674,"ARG_OF_PERICENTER":105.4946,"MEAN_ANOMALY":254.6205,"EPHEMERIS_TYPE":0,"CLASSIFICATION_TYPE":"U","NORAD_CAT_ID":53799,"ELEMENT_SET_NO":999,"REV_AT_EPOCH":17687,"BSTAR":-0.00016817,"MEAN_MOTION_DOT":-2.963e-5,"MEAN_MOTION_DDOT":0}]
