STARLINK-4709           
1 53778U 22111F   25321.50396867  .00000783  00000+0  67283-4 0  9991
2 53778  53.2193  62.4651 0001453 104.4717 255.6436 15.08835475176692
STARLINK-4706           
1 53779U 22111G   25321.47320625 -.00001599  00000+0 -82353-4 0  9990
2 53779  53.2184  57.9961 0001281  85.4590 274.6548 15.08846017176758
STARLINK-4678           
1 53780U 22111H   25321.48056519 -.00000262  00000+0  16168-5 0  9998
2 53780  53.2183  58.0322 0001554  96.1512 263.9657 15.08847166176756
STARLINK-4462           
1 53781U 22111J   25321.46214135 -.00001496  00000+0 -75917-4 0  9994
2 53781  53.2171  57.9274 0001307  94.3014 265.8128 15.08849896176757
STARLINK-4679           
1 53782U 22111K   25321.46944646 -.00038760  00000+0 -24205-2 0  9998
2 53782  53.2201  57.9710 0002256  58.4490 301.6722 15.08986392176752
STARLINK-4536           
1 53783U 22111L   25321.45477615 -.00002279  00000+0 -12515-3 0  9993
2 53783  53.2190  57.8827 0001435  97.5987 262.5168 15.08841537176751
STARLINK-4687           
1 53784U 22111M   25320.47222573  .00003026  00000+0  20807-3 0  9998
2 53784  53.2175  62.4099 0001329 115.4955 244.6175 15.08847813176601
STARLINK-4743           
1 53787U 22111Q   25321.44741367  .00002157  00000+0  15355-3 0  9992
2 53787  53.2198  57.8361 0000919  57.4138 302.6943 15.08845536176755
STARLINK-4666           
1 53789U 22111S   25321.50259094  .00011554  00000+0  74275-3 0  9999
2 53789  53.2193  57.4695 0001392 106.2071 253.9074 15.08843503176758
STARLINK-4734           
1 53790U 22111T   25321.45108929  .00001014  00000+0  81793-4 0  9999
2 53790  53.2171  57.8593 0001308 100.3533 259.7607 15.08844775176750
STARLINK-4739           
1 53792U 22111V   25321.49626350 -.00000225  00000+0  39829-5 0  9996
2 53792  53.2192  58.1221 0001317  96.5631 263.5511 15.08847312176748
STARLINK-4728           
1 53793U 22111W   25321.44372005  .00003732  00000+0  25236-3 0  9997
2 53793  53.2192  57.8095 0000941  79.9542 280.1557 15.08849910176743
STARLINK-4730           
1 53794U 22111X   25321.44836345 -.00000332  00000+0 -27601-5 0  9995
2 53794  53.2190  57.8379 0001040  83.5190 276.5921 15.08840851176747
STARLINK-4742           
1 53795U 22111Y   25321.49890120  .00001908  00000+0  13795-3 0  9997
2 53795  53.2185  57.4458 0001244  92.6052 267.5082 15.08827720176759
STARLINK-4723           
1 53797U 22111AA  25321.48784965 -.00000372  00000+0 -52635-5 0  9991
2 53797  53.2173  57.3762 0001166 100.0206 260.0918 15.08847807176746
STARLINK-4712           
1 53798U 22111AB  25321.49153608  .00000367  00000+0  41118-4 0  9992
2 53798  53.2175  57.3986 0001212  83.7831 276.3299 15.08845996176749
STARLINK-4710           
1 53799U 22111AC  25321.46772670 -.00002963  00000+0 -16817-3 0  9999
2 53799  53.2182  47.9674 0001436 105.4946 254.6205 15.08829146176873
